Pour test de la prise en compte d'un vent variable
depuis 01 20h, et en sourdine jusqu'à la fin. 
TAF LONG: LFLL 011700Z 0118/0224 18007KT 9999 SCT040BECMG 0120/0122 VRB02KTPROB40 TEMPO 0122/0207 3000 BR BKN008PROB30 TEMPO 0202/0206 -DZBECMG 0210/0212 35007KTPROB40 TEMPO 0210/0215 4000 SHRA SCT025TCU BKN035=
