Jeu de tests conçu pour vérifier le report des becmg, tempo, prob40 et prob40tempo

Test WW :
TEMPO N/M => report WW à M inclus (cf LFRB-DDDD)
PROB40 TEMPO N/M => report WW à M inclus (cf LFRB-DDDD)
BECMG N/M => WW dès N (cf LFBE-EEEE)

# Test visi :
BECMG N/M => report phéno précédent jusqu'à M inclus (cf LFBE-EEEE)
TEMPO N/M => report de la visi jusqu'à M inclus (cl LFOB-HHHH)
PROB40 TEMPO N/M => report de la visi jusqu'à M inclus (cl LFRD-IIII)

# Test vent :
PROB40 TEMPO N/M => report du FX jusqu'à M inclus (cl LFRD-IIII)
PROB40 TEMPO N/M => report du FF jusqu'à M inclus (cl LFRD-IIII)
TEMPO N/M => report du FF jusqu'à M inclus (cl LFTH-JJJJ)
TEMPO N/M => report du FX jusqu'à M inclus (cl LFTH-JJJJ)
Pour LFPG : TEMPO N/M, déja FX reporté à M dans le CDP aéro => pas de report du FX à M+1 

Test parametre supp :
# Test Si GR => ajoute GS (cf LFCR-GGGG)
Si FZFG => ajoute FG (cf LFBI-FFFF)


## Collectifs de TAF

TAF LONG: LFPG 120500Z 1206/1312 15005KT 0500 FG VV///
TX10/1214Z TN00/1206Z
PROB30 TEMPO 1206/1207 FZFG
BECMG 1209/1211 3000 BR BKN003
BECMG 1212/1213 CAVOK
BECMG 1218/1221 21010KT BKN008
PROB30 TEMPO 1220/1304 3000 -RADZ BKN004
BECMG 1309/1311 27010KT FEW012 BKN040=

TAF LONG: LFOB 120500Z 1206/1306 VRB03KT 0400 FG VV/// 
TEMPO 1206/1208 0150 FZFG 
BECMG 1208/1210 3000 BR OVC003 
BECMG 1210/1212 18010KT 9999 NSW NSC 
BECMG 1216/1218 24010G20KT OVC013 
TEMPO 1218/1306 3000 RADZ
OVC005=

TAF LONG: 
LFRD 120500Z 1206/1306 21006KT CAVOK TEMPO 1206/1210 3000 BR 
PROB40 TEMPO 1206/1209 1500 BR BKN002 
BECMG 1209/1211 22012KT BKN015 
TEMPO 1211/1214 4000 RADZ BKN008 
PROB40 TEMPO 1211/1214 20015G25KT 
BECMG 1212/1215 BKN025 
TEMPO 1300/1306 BKN010 BECMG 1304/1306 27010KT

TAF LONG: 
LFRB 120500Z 1206/1312 21012KT 9999 BKN015 
TEMPO 1206/1209 2000 RADZ BKN004 
PROB40 TEMPO 1206/1215 25015G25KT BECMG 1208/1210 BKN020
PROB40 TEMPO 1210/1212 5000 SHRA BKN010 BECMG 1214/1216 27010KT
PROB40 TEMPO 1213/1312 BKN012 BECMG 1310/1312 32010KT=

TAF LONG: 
LFBE 120500Z 1206/1306 VRB02KT 0400 FG VV/// 
TEMPO 1208/1210 3000 BR BKN003 
BECMG 1210/1212 28005KT CAVOK 
BECMG 1220/1222 VRB02KT 0800 FG VV/// 
TEMPO 1300/1306 0400=

TAF LONG: 
LFLY 120500Z 1206/1306 36005KT 6000 OVC006 
TEMPO 1206/1209 4500BR OVC004 
BECMG 1210/1214 8000 FEW009 
TEMPO 1218/1306 17003KT 2500 BR OVC003 
PROB40 1218/1306 0500 FG VV///=

TAF LONG: 
AMD LFCR 120704Z 1207/1306 VRB02KT CAVOK 
BECMG 1216/1218 30006KTBKN006 
TEMPO 1220/1306 4000 BR OVC003 
PROB40 TEMPO 1221/1306 0600 FGVV///=

LFTH 120200Z 1203/1303 02010KT CAVOK 
TEMPO 1203/1220 -RA FEW050TCU 
TEMPO 1206/1218 07015G30KT 
PROB30 TEMPO 1209/1217 TSRA FEW020CB

TAF LONG: AMD LFPG 031449Z 0314/0418 21012KT 6000 BKN007 TX11/0403Z
TN03/0315Z TEMPO 0314/0324 BKN004 TEMPO 0314/0316 21015G25KT 3500
RADZ PROB40 TEMPO 0318/0324 2000 RA BECMG 0400/0402 NSW BKN012 TEMPO
0400/0406 25015G30KT PROB40 TEMPO 0409/0412 4000 SHRA BKN013CB BECMG
0413/0415 BKN040=